STARLINK-36730
1 67874U 26034AA  26090.83335647 -.01874365  00000+0 -44200-1 0  9999
2 67874  53.1594 101.4844 0001109  83.1920 309.2391 15.44560996  6010
